{
  "type": "FeatureCollection",
  "features": [
    {
      "type": "Feature",
      "properties": {
        "norad_id": 28054,
        "name": "DMSP 5D-3 F16 (USA 172)",
        "group": "weather",
        "lat": 41.00210124710867,
        "lon": -0.06286204569530758,
        "alt_km": 841.1186929433325,
        "timestamp": "2025-12-16T08:59:42.800672+00:00",
        "meta_object_name": "DMSP 5D-3 F16 (USA 172)",
        "meta_object_id": "2003-048A",
        "meta_epoch": "2025-12-15T22:53:48.488352",
        "meta_mean_motion": 14.14425402,
        "meta_eccentricity": 0.00063972,
        "meta_inclination": 99.0044,
        "meta_ra_of_asc_node": 7.4364,
        "meta_arg_of_pericenter": 310.7198,
        "meta_mean_anomaly": 109.587,
        "meta_ephemeris_type": 0,
        "meta_classification_type": "U",
        "meta_norad_cat_id": 28054,
        "meta_element_set_no": 999,
        "meta_rev_at_epoch": 14358,
        "meta_bstar": 9.2293294e-05,
        "meta_mean_motion_dot": 1.31e-06,
        "meta_mean_motion_ddot": 0,
        "tle_line1": "1 28054U 03048A   25349.95403343  .00000131  00000+0  92293-4 0  9991",
        "tle_line2": "2 28054  99.0044   7.4364 0006397 310.7198 109.5870 14.14425402143583"
      },
      "geometry": {
        "type": "Point",
        "coordinates": [
          -0.06286204569530758,
          41.00210124710867
        ]
      }
    },
    {
      "type": "Feature",
      "properties": {
        "norad_id": 28912,
        "name": "METEOSAT-9 (MSG-2)",
        "group": "weather",
        "lat": -4.482609374630647,
        "lon": -94.34863924608638,
        "alt_km": 35771.12302568731,
        "timestamp": "2025-12-16T08:59:42.800727+00:00",
        "meta_object_name": "METEOSAT-9 (MSG-2)",
        "meta_object_id": "2005-049B",
        "meta_epoch": "2025-12-15T20:27:10.626048",
        "meta_mean_motion": 1.00278296,
        "meta_eccentricity": 0.00034199,
        "meta_inclination": 8.9463,
        "meta_ra_of_asc_node": 55.948,
        "meta_arg_of_pericenter": 190.7144,
        "meta_mean_anomaly": 190.6182,
        "meta_ephemeris_type": 0,
        "meta_classification_type": "U",
        "meta_norad_cat_id": 28912,
        "meta_element_set_no": 999,
        "meta_rev_at_epoch": 516,
        "meta_bstar": 0,
        "meta_mean_motion_dot": 1.39e-06,
        "meta_mean_motion_ddot": 0,
        "tle_line1": "1 28912U 05049B   25349.85220632  .00000139  00000+0  00000+0 0  9992",
        "tle_line2": "2 28912   8.9463  55.9480 0003419 190.7144 190.6182  1.00278296  5162"
      },
      "geometry": {
        "type": "Point",
        "coordinates": [
          -94.34863924608638,
          -4.482609374630647
        ]
      }
    },
    {
      "type": "Feature",
      "properties": {
        "norad_id": 29522,
        "name": "DMSP 5D-3 F17 (USA 191)",
        "group": "weather",
        "lat": -11.493161929828714,
        "lon": -2.519544545067133,
        "alt_km": 851.6939500030048,
        "timestamp": "2025-12-16T08:59:42.800746+00:00",
        "meta_object_name": "DMSP 5D-3 F17 (USA 191)",
        "meta_object_id": "2006-050A",
        "meta_epoch": "2025-12-15T22:52:01.818048",
        "meta_mean_motion": 14.14921037,
        "meta_eccentricity": 0.00095374,
        "meta_inclination": 98.7392,
        "meta_ra_of_asc_node": 355.275,
        "meta_arg_of_pericenter": 215.0402,
        "meta_mean_anomaly": 145.0145,
        "meta_ephemeris_type": 0,
        "meta_classification_type": "U",
        "meta_norad_cat_id": 29522,
        "meta_element_set_no": 999,
        "meta_rev_at_epoch": 98650,
        "meta_bstar": 0.00010750793,
        "meta_mean_motion_dot": 1.64e-06,
        "meta_mean_motion_ddot": 0,
        "tle_line1": "1 29522U 06050A   25349.95279882  .00000164  00000+0  10751-3 0  9991",
        "tle_line2": "2 29522  98.7392 355.2750 0009537 215.0402 145.0145 14.14921037986505"
      },
      "geometry": {
        "type": "Point",
        "coordinates": [
          -2.519544545067133,
          -11.493161929828714
        ]
      }
    },
    {
      "type": "Feature",
      "properties": {
        "norad_id": 32958,
        "name": "FENGYUN 3A",
        "group": "weather",
        "lat": 56.47923901208629,
        "lon": 123.14218603599697,
        "alt_km": 827.1561083885581,
        "timestamp": "2025-12-16T08:59:42.800760+00:00",
        "meta_object_name": "FENGYUN 3A",
        "meta_object_id": "2008-026A",
        "meta_epoch": "2025-12-15T20:34:41.856960",
        "meta_mean_motion": 14.19515611,
        "meta_eccentricity": 0.00077955,
        "meta_inclination": 98.6699,
        "meta_ra_of_asc_node": 289.3185,
        "meta_arg_of_pericenter": 300.5674,
        "meta_mean_anomaly": 59.4732,
        "meta_ephemeris_type": 0,
        "meta_classification_type": "U",
        "meta_norad_cat_id": 32958,
        "meta_element_set_no": 999,
        "meta_rev_at_epoch": 90939,
        "meta_bstar": 6.8055938e-05,
        "meta_mean_motion_dot": 1e-06,
        "meta_mean_motion_ddot": 0,
        "tle_line1": "1 32958U 08026A   25349.85742890  .00000100  00000+0  68056-4 0  9998",
        "tle_line2": "2 32958  98.6699 289.3185 0007795 300.5674  59.4732 14.19515611909399"
      },
      "geometry": {
        "type": "Point",
        "coordinates": [
          123.14218603599697,
          56.47923901208629
        ]
      }
    },
    {
      "type": "Feature",
      "properties": {
        "norad_id": 35491,
        "name": "GOES 14",
        "group": "weather",
        "lat": 0.48846512202653775,
        "lon": 108.12444164365428,
        "alt_km": 35837.338191687246,
        "timestamp": "2025-12-16T08:59:42.800774+00:00",
        "meta_object_name": "GOES 14",
        "meta_object_id": "2009-033A",
        "meta_epoch": "2025-12-15T12:51:26.265888",
        "meta_mean_motion": 1.00096491,
        "meta_eccentricity": 6.041e-05,
        "meta_inclination": 1.2099,
        "meta_ra_of_asc_node": 85.3705,
        "meta_arg_of_pericenter": 168.6787,
        "meta_mean_anomaly": 271.7274,
        "meta_ephemeris_type": 0,
        "meta_classification_type": "U",
        "meta_norad_cat_id": 35491,
        "meta_element_set_no": 999,
        "meta_rev_at_epoch": 475,
        "meta_bstar": 0,
        "meta_mean_motion_dot": 0,
        "meta_mean_motion_ddot": 0,
        "tle_line1": "1 35491U 09033A   25349.53572067  .00000000  00000+0  00000+0 0  9993",
        "tle_line2": "2 35491   1.2099  85.3705 0000604 168.6787 271.7274  1.00096491  4752"
      },
      "geometry": {
        "type": "Point",
        "coordinates": [
          108.12444164365428,
          0.48846512202653775
        ]
      }
    },
    {
      "type": "Feature",
      "properties": {
        "norad_id": 35951,
        "name": "DMSP 5D-3 F18 (USA 210)",
        "group": "weather",
        "lat": -33.57414243686311,
        "lon": 140.7986626078064,
        "alt_km": 857.379427267776,
        "timestamp": "2025-12-16T08:59:42.800788+00:00",
        "meta_object_name": "DMSP 5D-3 F18 (USA 210)",
        "meta_object_id": "2009-057A",
        "meta_epoch": "2025-12-15T21:48:13.845312",
        "meta_mean_motion": 14.14771163,
        "meta_eccentricity": 0.00119939,
        "meta_inclination": 98.8836,
        "meta_ra_of_asc_node": 326.2934,
        "meta_arg_of_pericenter": 54.4286,
        "meta_mean_anomaly": 305.8003,
        "meta_ephemeris_type": 0,
        "meta_classification_type": "U",
        "meta_norad_cat_id": 35951,
        "meta_element_set_no": 999,
        "meta_rev_at_epoch": 83367,
        "meta_bstar": 0.00016864252,
        "meta_mean_motion_dot": 2.81e-06,
        "meta_mean_motion_ddot": 0,
        "tle_line1": "1 35951U 09057A   25349.90849358  .00000281  00000+0  16864-3 0  9991",
        "tle_line2": "2 35951  98.8836 326.2934 0011993  54.4286 305.8003 14.14771163833679"
      },
      "geometry": {
        "type": "Point",
        "coordinates": [
          140.7986626078064,
          -33.57414243686311
        ]
      }
    },
    {
      "type": "Feature",
      "properties": {
        "norad_id": 36411,
        "name": "EWS-G2 (GOES 15)",
        "group": "weather",
        "lat": -0.24096489723612574,
        "lon": -78.41214199549978,
        "alt_km": 35764.27394012161,
        "timestamp": "2025-12-16T08:59:42.800801+00:00",
        "meta_object_name": "EWS-G2 (GOES 15)",
        "meta_object_id": "2010-008A",
        "meta_epoch": "2025-12-15T20:40:38.740800",
        "meta_mean_motion": 1.00270508,
        "meta_eccentricity": 0.00055584,
        "meta_inclination": 0.8214,
        "meta_ra_of_asc_node": 86.0762,
        "meta_arg_of_pericenter": 175.7709,
        "meta_mean_anomaly": 194.4603,
        "meta_ephemeris_type": 0,
        "meta_classification_type": "U",
        "meta_norad_cat_id": 36411,
        "meta_element_set_no": 999,
        "meta_rev_at_epoch": 5780,
        "meta_bstar": 0,
        "meta_mean_motion_dot": 6e-07,
        "meta_mean_motion_ddot": 0,
        "tle_line1": "1 36411U 10008A   25349.86155950  .00000060  00000+0  00000+0 0  9990",
        "tle_line2": "2 36411   0.8214  86.0762 0005558 175.7709 194.4603  1.00270508 57800"
      },
      "geometry": {
        "type": "Point",
        "coordinates": [
          -78.41214199549978,
          -0.24096489723612574
        ]
      }
    }
  ]
}